NORAD_CAT_ID,OBJECT_NAME,OBJECT_TYPE,EPOCH,MEAN_MOTION,ECCENTRICITY,INCLINATION,RA_OF_ASC_NODE,ARG_OF_PERICENTER,MEAN_ANOMALY,BSTAR,MEAN_MOTION_DOT,MEAN_MOTION_DDOT,TLE_LINE0,TLE_LINE1,TLE_LINE2,SEMIMAJOR_AXIS,PERIOD,APOGEE,PERIGEE,DECAYED
55774.0,STARLINK-5812,PAYLOAD,2024-05-20 21:36:04,14.98323933,0.0002682,70.0003,82.9379,262.7574,97.328,-6.2691e-05,-8.41e-06,0.0,0 STARLINK-5812,1 55774U 23028AK  24141.90004693 -.00000841  00000-0 -62691-4 0  9999,2 55774  70.0003  82.9379 0002682 262.7574  97.3280 14.98323933 68007,6950.212,96.107,573.941,570.213,0.0
55774.0,STARLINK-5812,PAYLOAD,2024-05-21 05:36:43,14.98331306,0.0002696,70.0003,82.0953,263.739,96.3462,-3.3063e-05,-4.87e-06,0.0,0 STARLINK-5812,1 55774U 23028AK  24142.23384214 -.00000487  00000-0 -33063-4 0  9993,2 55774  70.0003  82.0953 0002696 263.7390  96.3462 14.98331306 68057,6950.189,96.107,573.928,570.18,0.0
55774.0,STARLINK-5812,PAYLOAD,2024-05-21 21:38:04,14.98328615,0.0002751,70.0002,80.4119,265.0771,95.0074,0.00010882,1.206e-05,0.0,0 STARLINK-5812,1 55774U 23028AK  24142.90143994  .00001206  00000-0  10882-3 0  9996,2 55774  70.0002  80.4119 0002751 265.0771  95.0074 14.98328615 68157,6950.197,96.107,573.974,570.15,0.0
55774.0,STARLINK-5812,PAYLOAD,2024-05-22 05:38:44,14.98333252,0.0002791,70.0006,79.571,267.6276,92.4564,0.0001789,2.042e-05,0.0,0 STARLINK-5812,1 55774U 23028AK  24143.23523502  .00002042  00000-0  17890-3 0  9995,2 55774  70.0006  79.5710 0002791 267.6276  92.4564 14.98333252 68203,6950.183,96.107,573.988,570.108,0.0
55774.0,STARLINK-5812,PAYLOAD,2024-05-22 21:40:05,14.98330183,0.0002405,70.0018,77.8912,246.3544,113.7363,4.3906e-05,4.31e-06,0.0,0 STARLINK-5812,1 55774U 23028AK  24143.90283967  .00000431  00000-0  43906-4 0  9995,2 55774  70.0018  77.8912 0002405 246.3544 113.7363 14.98330183 68300,6950.192,96.107,573.729,570.386,0.0
55774.0,STARLINK-5812,PAYLOAD,2024-05-23 04:04:37,14.98328327,0.0002536,70.0013,77.2173,251.6463,108.442,-2.1271e-05,-3.47e-06,0.0,0 STARLINK-5812,1 55774U 23028AK  24144.16988279 -.00000347  00000-0 -21271-4 0  9991,2 55774  70.0013  77.2173 0002536 251.6463 108.4420 14.98328327 68348,6950.198,96.107,573.826,570.3,0.0
55774.0,STARLINK-5812,PAYLOAD,2024-05-23 05:40:45,14.98328326,0.0002539,70.0013,77.0491,250.5774,109.5111,-2.7292e-05,-4.19e-06,0.0,0 STARLINK-5812,1 55774U 23028AK  24144.23664290 -.00000419  00000-0 -27292-4 0  9992,2 55774  70.0013  77.0491 0002539 250.5774 109.5111 14.98328326 68354,6950.198,96.107,573.828,570.298,0.0
55774.0,STARLINK-5812,PAYLOAD,2024-05-23 21:42:05,14.98358277,0.0002508,70.001,75.3655,248.7848,111.3044,-0.00039283,-4.78e-05,0.0,0 STARLINK-5812,1 55774U 23028AK  24144.90423431 -.00004780  00000-0 -39283-3 0  9993,2 55774  70.0010  75.3655 0002508 248.7848 111.3044 14.98358277 68456,6950.105,96.105,573.714,570.227,0.0
55774.0,STARLINK-5812,PAYLOAD,2024-05-24 04:06:37,14.98339495,0.0002569,70.0011,74.6919,252.952,107.1358,3.9505e-05,3.79e-06,0.0,0 STARLINK-5812,1 55774U 23028AK  24145.17127091  .00000379  00000-0  39505-4 0  9992,2 55774  70.0011  74.6919 0002569 252.9520 107.1358 14.98339495 68499,6950.164,96.106,573.814,570.243,0.0
55774.0,STARLINK-5812,PAYLOAD,2024-05-24 05:42:45,14.98349639,0.0002352,70.0009,74.5223,253.4561,106.634,-0.00011119,-1.42e-05,0.0,0 STARLINK-5812,1 55774U 23028AK  24145.23802781 -.00001420  00000-0 -11119-3 0  9995,2 55774  70.0009  74.5223 0002352 253.4561 106.6340 14.98349639 68502,6950.132,96.106,573.632,570.362,0.0
55774.0,STARLINK-5812,PAYLOAD,2024-05-24 20:07:59,14.98325504,0.0001931,70.0024,73.0067,249.6897,110.4055,4.3037e-05,4.21e-06,0.0,0 STARLINK-5812,1 55774U 23028AK  24145.83887850  .00000421  00000-0  43037-4 0  9994,2 55774  70.0024  73.0067 0001931 249.6897 110.4055 14.98325504 68590,6950.207,96.107,573.414,570.73,0.0
55774.0,STARLINK-5812,PAYLOAD,2024-05-24 21:44:07,14.98321892,0.0002192,70.0018,72.8382,246.7272,113.3656,1.8452e-05,1.27e-06,0.0,0 STARLINK-5812,1 55774U 23028AK  24145.90564095  .00000127  00000-0  18452-4 0  9991,2 55774  70.0018  72.8382 0002192 246.7272 113.3656 14.98321892 68602,6950.218,96.108,573.606,570.559,0.0
55774.0,STARLINK-5812,PAYLOAD,2024-05-25 04:08:39,14.9831955,0.0002293,70.0017,72.1656,250.8225,109.2685,-3.5111e-05,-5.12e-06,0.0,0 STARLINK-5812,1 55774U 23028AK  24146.17268513 -.00000512  00000-0 -35111-4 0  9998,2 55774  70.0017  72.1656 0002293 250.8225 109.2685 14.98319550 68642,6950.225,96.108,573.684,570.497,0.0
55774.0,STARLINK-5812,PAYLOAD,2024-05-25 12:09:19,14.98330558,0.00028,70.001,71.3232,269.5022,90.5816,-7.6917e-06,-1.85e-06,0.0,0 STARLINK-5812,1 55774U 23028AK  24146.50647850 -.00000185  00000-0 -76917-5 0  9996,2 55774  70.0010  71.3232 0002800 269.5022  90.5816 14.98330558 68696,6950.191,96.107,574.002,570.11,0.0
55774.0,STARLINK-5812,PAYLOAD,2024-05-26 04:10:40,14.98333316,0.000278,70.0004,69.6403,264.9345,95.1497,-2.6506e-05,-4.09e-06,0.0,0 STARLINK-5812,1 55774U 23028AK  24147.17407692 -.00000409  00000-0 -26506-4 0  9995,2 55774  70.0004  69.6403 0002780 264.9345  95.1497 14.98333316 68795,6950.183,96.107,573.98,570.115,0.0
55774.0,STARLINK-5812,PAYLOAD,2024-05-26 20:12:00,14.98325662,0.0002665,70.0012,67.958,261.0226,99.0631,9.6591e-05,1.06e-05,0.0,0 STARLINK-5812,1 55774U 23028AK  24147.84167729  .00001060  00000-0  96591-4 0  9996,2 55774  70.0012  67.9580 0002665 261.0226  99.0631 14.98325662 68898,6950.206,96.107,573.924,570.219,0.0
55774.0,STARLINK-5812,PAYLOAD,2024-05-26 21:48:09,14.98325168,0.0002913,70.0006,67.7884,268.7075,91.375,9.1856e-05,1.003e-05,0.0,0 STARLINK-5812,1 55774U 23028AK  24147.90843804  .00001003  00000-0  91856-4 0  9994,2 55774  70.0006  67.7884 0002913 268.7075  91.3750 14.98325168 68908,6950.208,96.107,574.097,570.048,0.0
55774.0,STARLINK-5812,PAYLOAD,2024-05-27 12:13:21,14.98330986,0.0002787,70.0007,66.2739,265.9819,94.1022,3.9343e-05,3.77e-06,0.0,0 STARLINK-5812,1 55774U 23028AK  24148.50927583  .00000377  00000-0  39343-4 0  9994,2 55774  70.0007  66.2739 0002787 265.9819  94.1022 14.98330986 68992,6950.19,96.107,573.992,570.118,0.0
55774.0,STARLINK-5812,PAYLOAD,2024-05-27 20:14:02,14.98328212,0.0002874,70.0004,65.4312,263.3692,96.714,-2.8097e-05,-4.28e-06,0.0,0 STARLINK-5812,1 55774U 23028AK  24148.84307976 -.00000428  00000-0 -28097-4 0  9992,2 55774  70.0004  65.4312 0002874 263.3692  96.7140 14.98328212 69040,6950.198,96.107,574.061,570.066,0.0
55774.0,STARLINK-5812,PAYLOAD,2024-05-27 21:50:10,14.98328724,0.0002878,70.0004,65.2626,263.4418,96.6414,-2.2755e-05,-3.64e-06,0.0,0 STARLINK-5812,1 55774U 23028AK  24148.90983930 -.00000364  00000-0 -22755-4 0  9993,2 55774  70.0004  65.2626 0002878 263.4418  96.6414 14.98328724 69059,6950.197,96.107,574.062,570.062,0.0
55774.0,STARLINK-5812,PAYLOAD,2024-05-28 04:14:42,14.98333209,0.0002985,70.0,64.5884,268.4076,91.6741,1.9677e-05,1.42e-06,0.0,0 STARLINK-5812,1 55774U 23028AK  24149.17687532  .00000142  00000-0  19677-4 0  9993,2 55774  70.0000  64.5884 0002985 268.4076  91.6741 14.98333209 69093,6950.183,96.107,574.123,569.973,0.0
55774.0,STARLINK-5812,PAYLOAD,2024-05-28 21:52:10,14.98331421,0.0003015,70.0,62.7369,268.6146,91.4668,-3.1668e-05,-4.71e-06,0.0,0 STARLINK-5812,1 55774U 23028AK  24149.91123694 -.00000471  00000-0 -31668-4 0  9990,2 55774  70.0000  62.7369 0003015 268.6146  91.4668 14.98331421 69209,6950.188,96.107,574.149,569.958,0.0
55774.0,STARLINK-5812,PAYLOAD,2024-05-29 04:16:42,14.9833433,0.0003009,70.0002,62.0638,269.1509,90.9305,3.1434e-06,-5.5e-07,0.0,0 STARLINK-5812,1 55774U 23028AK  24150.17827373 -.00000055  00000-0  31434-5 0  9994,2 55774  70.0002  62.0638 0003009 269.1509  90.9305 14.98334330 69243,6950.18,96.107,574.136,569.953,0.0
55774.0,STARLINK-5812,PAYLOAD,2024-05-29 21:54:11,14.98330166,0.000306,70.0001,60.2126,268.7883,91.2925,-1.244e-06,-1.08e-06,0.0,0 STARLINK-5812,1 55774U 23028AK  24150.91263578 -.00000108  00000-0 -12440-5 0  9993,2 55774  70.0001  60.2126 0003060 268.7883  91.2925 14.98330166 69358,6950.192,96.107,574.184,569.931,0.0
55774.0,STARLINK-5812,PAYLOAD,2024-05-30 04:18:43,14.9833351,0.000303,70.0002,59.5393,268.8839,91.1973,3.4748e-05,3.22e-06,0.0,0 STARLINK-5812,1 55774U 23028AK  24151.17967228  .00000322  00000-0  34748-4 0  9995,2 55774  70.0002  59.5393 0003030 268.8839  91.1973 14.98333510 69397,6950.182,96.107,574.153,569.941,0.0
55774.0,STARLINK-5812,PAYLOAD,2024-05-30 21:56:12,14.9833204,0.0002832,70.0009,57.6891,267.7302,92.3533,1.2177e-05,5.2e-07,0.0,0 STARLINK-5812,1 55774U 23028AK  24151.91403280  .00000052  00000-0  12177-4 0  9992,2 55774  70.0009  57.6891 0002832 267.7302  92.3533 14.98332040 69503,6950.187,96.107,574.02,570.083,0.0
55774.0,STARLINK-5812,PAYLOAD,2024-05-31 02:44:36,14.98325774,0.0002714,70.0009,57.184,266.105,93.9798,0.00017945,2.049e-05,0.0,0 STARLINK-5812,1 55774U 23028AK  24152.11431089  .00002049  00000-0  17945-3 0  9998,2 55774  70.0009  57.1840 0002714 266.1050  93.9798 14.98325774 69533,6950.206,96.107,573.957,570.185,0.0
55774.0,STARLINK-5812,PAYLOAD,2024-05-31 20:22:05,14.98328281,0.0002959,70.0009,55.3326,271.9966,88.0855,-2.926e-05,-4.42e-06,0.0,0 STARLINK-5812,1 55774U 23028AK  24152.84867463 -.00000442  00000-0 -29260-4 0  9998,2 55774  70.0009  55.3326 0002959 271.9966  88.0855 14.98328281 69640,6950.198,96.107,574.12,570.007,0.0
55774.0,STARLINK-5812,PAYLOAD,2024-05-31 21:58:13,14.98329497,0.0002823,70.0009,55.1643,270.6118,89.4718,-5.0727e-05,-6.98e-06,0.0,0 STARLINK-5812,1 55774U 23028AK  24152.91543456 -.00000698  00000-0 -50727-4 0  9994,2 55774  70.0009  55.1643 0002823 270.6118  89.4718 14.98329497 69659,6950.194,96.107,574.021,570.097,0.0
55774.0,STARLINK-5812,PAYLOAD,2024-06-01 10:47:18,14.98318135,0.0002492,70.001,53.8179,265.7256,94.3619,0.00017494,1.994e-05,0.0,0 STARLINK-5812,1 55774U 23028AK  24153.44951658  .00001994  00000-0  17494-3 0  9991,2 55774  70.0010  53.8179 0002492 265.7256  94.3619 14.98318135 69731,6950.23,96.108,573.827,570.363,0.0
